CCSDS_OMM_VERS = 2.0
CREATION_DATE  = 
ORIGINATOR     = 

OBJECT_NAME    = SL-4 R/B
OBJECT_ID      = 2014-021B
CENTER_NAME    = EARTH
REF_FRAME      = TEME
TIME_SYSTEM    = UTC
MEAN_ELEMENT_THEORY = SGP/SGP4

EPOCH          = 2026-01-28T21:01:30.438336
MEAN_MOTION    = 15.37932933
ECCENTRICITY   = .00990341
INCLINATION    = 51.6052
RA_OF_ASC_NODE = 171.3120
ARG_OF_PERICENTER = 317.7837
MEAN_ANOMALY   = 41.5550

EPHEMERIS_TYPE = 0
CLASSIFICATION_TYPE = U
NORAD_CAT_ID   = 39679
ELEMENT_SET_NO = 999
REV_AT_EPOCH   = 65014
BSTAR          = .39303553E-3
MEAN_MOTION_DOT = .17219E-3
MEAN_MOTION_DDOT = 0

CCSDS_OMM_VERS = 2.0
CREATION_DATE  = 
ORIGINATOR     = 

OBJECT_NAME    = ALOS-2
OBJECT_ID      = 2014-029A
CENTER_NAME    = EARTH
REF_FRAME      = TEME
TIME_SYSTEM    = UTC
MEAN_ELEMENT_THEORY = SGP/SGP4

EPOCH          = 2026-01-27T11:06:30.475008
MEAN_MOTION    = 14.79473850
ECCENTRICITY   = .00014672
INCLINATION    = 97.9188
RA_OF_ASC_NODE = 126.6510
ARG_OF_PERICENTER = 100.4748
MEAN_ANOMALY   = 259.6629

EPHEMERIS_TYPE = 0
CLASSIFICATION_TYPE = U
NORAD_CAT_ID   = 39766
ELEMENT_SET_NO = 999
REV_AT_EPOCH   = 63077
BSTAR          = .78528944E-4
MEAN_MOTION_DOT = .535E-5
MEAN_MOTION_DDOT = 0

CCSDS_OMM_VERS = 2.0
CREATION_DATE  = 
ORIGINATOR     = 

OBJECT_NAME    = YAOGAN-29
OBJECT_ID      = 2015-069A
CENTER_NAME    = EARTH
REF_FRAME      = TEME
TIME_SYSTEM    = UTC
MEAN_ELEMENT_THEORY = SGP/SGP4

EPOCH          = 2026-01-28T23:38:48.177312
MEAN_MOTION    = 14.82948847
ECCENTRICITY   = .00028552
INCLINATION    = 98.0195
RA_OF_ASC_NODE = 57.3019
ARG_OF_PERICENTER = 102.3034
MEAN_ANOMALY   = 257.8499

EPHEMERIS_TYPE = 0
CLASSIFICATION_TYPE = U
NORAD_CAT_ID   = 41038
ELEMENT_SET_NO = 999
REV_AT_EPOCH   = 54999
BSTAR          = .13453051E-3
MEAN_MOTION_DOT = .1038E-4
MEAN_MOTION_DDOT = 0

CCSDS_OMM_VERS = 2.0
CREATION_DATE  = 
ORIGINATOR     = 

OBJECT_NAME    = ASTRO-H (HITOMI)
OBJECT_ID      = 2016-012A
CENTER_NAME    = EARTH
REF_FRAME      = TEME
TIME_SYSTEM    = UTC
MEAN_ELEMENT_THEORY = SGP/SGP4

EPOCH          = 2026-01-28T16:53:54.221856
MEAN_MOTION    = 15.09706054
ECCENTRICITY   = .00099318
INCLINATION    = 30.9987
RA_OF_ASC_NODE = 254.5277
ARG_OF_PERICENTER = 290.9559
MEAN_ANOMALY   = 69.0016

EPHEMERIS_TYPE = 0
CLASSIFICATION_TYPE = U
NORAD_CAT_ID   = 41337
ELEMENT_SET_NO = 999
REV_AT_EPOCH   = 54618
BSTAR          = .26144388E-3
MEAN_MOTION_DOT = .4417E-4
MEAN_MOTION_DDOT = 0

CCSDS_OMM_VERS = 2.0
CREATION_DATE  = 
ORIGINATOR     = 

OBJECT_NAME    = HXMT (HUIYAN)
OBJECT_ID      = 2017-034A
CENTER_NAME    = EARTH
REF_FRAME      = TEME
TIME_SYSTEM    = UTC
MEAN_ELEMENT_THEORY = SGP/SGP4

EPOCH          = 2026-01-28T22:44:47.391936
MEAN_MOTION    = 15.16934592
ECCENTRICITY   = .00324098
INCLINATION    = 43.0126
RA_OF_ASC_NODE = 237.5339
ARG_OF_PERICENTER = 341.0387
MEAN_ANOMALY   = 18.9252

EPHEMERIS_TYPE = 0
CLASSIFICATION_TYPE = U
NORAD_CAT_ID   = 42758
ELEMENT_SET_NO = 999
REV_AT_EPOCH   = 47650
BSTAR          = .34387243E-3
MEAN_MOTION_DOT = .6762E-4
MEAN_MOTION_DDOT = 0

CCSDS_OMM_VERS = 2.0
CREATION_DATE  = 
ORIGINATOR     = 

OBJECT_NAME    = CZ-2C R/B
OBJECT_ID      = 2018-054D
CENTER_NAME    = EARTH
REF_FRAME      = TEME
TIME_SYSTEM    = UTC
MEAN_ELEMENT_THEORY = SGP/SGP4

EPOCH          = 2026-01-28T20:29:53.722464
MEAN_MOTION    = 15.89454611
ECCENTRICITY   = .00133997
INCLINATION    = 35.1295
RA_OF_ASC_NODE = 218.3426
ARG_OF_PERICENTER = 276.0136
MEAN_ANOMALY   = 83.9075

EPHEMERIS_TYPE = 0
CLASSIFICATION_TYPE = U
NORAD_CAT_ID   = 43521
ELEMENT_SET_NO = 999
REV_AT_EPOCH   = 42251
BSTAR          = .99362702E-3
MEAN_MOTION_DOT = .304841E-2
MEAN_MOTION_DDOT = .34291617E-4

CCSDS_OMM_VERS = 2.0
CREATION_DATE  = 
ORIGINATOR     = 

OBJECT_NAME    = SAOCOM 1A
OBJECT_ID      = 2018-076A
CENTER_NAME    = EARTH
REF_FRAME      = TEME
TIME_SYSTEM    = UTC
MEAN_ELEMENT_THEORY = SGP/SGP4

EPOCH          = 2026-01-28T22:18:05.166144
MEAN_MOTION    = 14.82171821
ECCENTRICITY   = .00014625
INCLINATION    = 97.8867
RA_OF_ASC_NODE = 217.6667
ARG_OF_PERICENTER = 81.3911
MEAN_ANOMALY   = 278.7468

EPHEMERIS_TYPE = 0
CLASSIFICATION_TYPE = U
NORAD_CAT_ID   = 43641
ELEMENT_SET_NO = 999
REV_AT_EPOCH   = 39547
BSTAR          = .83848798E-4
MEAN_MOTION_DOT = .616E-5
MEAN_MOTION_DDOT = 0

CCSDS_OMM_VERS = 2.0
CREATION_DATE  = 
ORIGINATOR     = 

OBJECT_NAME    = H-2A R/B
OBJECT_ID      = 2018-084L
CENTER_NAME    = EARTH
REF_FRAME      = TEME
TIME_SYSTEM    = UTC
MEAN_ELEMENT_THEORY = SGP/SGP4

EPOCH          = 2026-01-28T20:22:59.328192
MEAN_MOTION    = 15.39543348
ECCENTRICITY   = .00261094
INCLINATION    = 98.8764
RA_OF_ASC_NODE = 237.7745
ARG_OF_PERICENTER = 160.0626
MEAN_ANOMALY   = 200.1641

EPHEMERIS_TYPE = 0
CLASSIFICATION_TYPE = U
NORAD_CAT_ID   = 43682
ELEMENT_SET_NO = 999
REV_AT_EPOCH   = 39964
BSTAR          = .74326836E-3
MEAN_MOTION_DOT = .29534E-3
MEAN_MOTION_DDOT = 0

CCSDS_OMM_VERS = 2.0
CREATION_DATE  = 
ORIGINATOR     = 

OBJECT_NAME    = SAOCOM 1B
OBJECT_ID      = 2020-059A
CENTER_NAME    = EARTH
REF_FRAME      = TEME
TIME_SYSTEM    = UTC
MEAN_ELEMENT_THEORY = SGP/SGP4

EPOCH          = 2026-01-28T23:03:08.131392
MEAN_MOTION    = 14.82151752
ECCENTRICITY   = .00013903
INCLINATION    = 97.8865
RA_OF_ASC_NODE = 216.7958
ARG_OF_PERICENTER = 84.0210
MEAN_ANOMALY   = 276.1162

EPHEMERIS_TYPE = 0
CLASSIFICATION_TYPE = U
NORAD_CAT_ID   = 46265
ELEMENT_SET_NO = 999
REV_AT_EPOCH   = 29286
BSTAR          = .16570262E-3
MEAN_MOTION_DOT = .1267E-4
MEAN_MOTION_DDOT = 0

CCSDS_OMM_VERS = 2.0
CREATION_DATE  = 
ORIGINATOR     = 

OBJECT_NAME    = CSS (TIANHE)
OBJECT_ID      = 2021-035A
CENTER_NAME    = EARTH
REF_FRAME      = TEME
TIME_SYSTEM    = UTC
MEAN_ELEMENT_THEORY = SGP/SGP4

EPOCH          = 2026-01-28T13:43:40.256544
MEAN_MOTION    = 15.61237451
ECCENTRICITY   = .0009404
INCLINATION    = 41.4673
RA_OF_ASC_NODE = 91.9689
ARG_OF_PERICENTER = 23.4558
MEAN_ANOMALY   = 336.6709

EPHEMERIS_TYPE = 0
CLASSIFICATION_TYPE = U
NORAD_CAT_ID   = 48274
ELEMENT_SET_NO = 999
REV_AT_EPOCH   = 27134
BSTAR          = .32261599E-3
MEAN_MOTION_DOT = .27953E-3
MEAN_MOTION_DDOT = 0

CCSDS_OMM_VERS = 2.0
CREATION_DATE  = 
ORIGINATOR     = 

OBJECT_NAME    = COSMOS 2550
OBJECT_ID      = 2021-056A
CENTER_NAME    = EARTH
REF_FRAME      = TEME
TIME_SYSTEM    = UTC
MEAN_ELEMENT_THEORY = SGP/SGP4

EPOCH          = 2026-01-26T03:10:39.828288
MEAN_MOTION    = 15.33840202
ECCENTRICITY   = .00083094
INCLINATION    = 67.1441
RA_OF_ASC_NODE = 169.6578
ARG_OF_PERICENTER = 269.8947
MEAN_ANOMALY   = 90.1255

EPHEMERIS_TYPE = 0
CLASSIFICATION_TYPE = U
NORAD_CAT_ID   = 48865
ELEMENT_SET_NO = 999
REV_AT_EPOCH   = 25693
BSTAR          = .322698E-6
MEAN_MOTION_DOT = -.181E-5
MEAN_MOTION_DDOT = 0

CCSDS_OMM_VERS = 2.0
CREATION_DATE  = 
ORIGINATOR     = 

OBJECT_NAME    = CZ-2C R/B
OBJECT_ID      = 2022-058K
CENTER_NAME    = EARTH
REF_FRAME      = TEME
TIME_SYSTEM    = UTC
MEAN_ELEMENT_THEORY = SGP/SGP4

EPOCH          = 2026-01-28T19:22:32.057472
MEAN_MOTION    = 15.51457109
ECCENTRICITY   = .00425345
INCLINATION    = 50.1879
RA_OF_ASC_NODE = 163.0070
ARG_OF_PERICENTER = 32.1438
MEAN_ANOMALY   = 328.2111

EPHEMERIS_TYPE = 0
CLASSIFICATION_TYPE = U
NORAD_CAT_ID   = 52794
ELEMENT_SET_NO = 999
REV_AT_EPOCH   = 20393
BSTAR          = .57046551E-3
MEAN_MOTION_DOT = .35326E-3
MEAN_MOTION_DDOT = 0

